QIANFAN-57              
1 62787U 25016C   25316.31063557  .00000174  00000+0  25109-3 0  9992
2 62787  88.9758 106.3377 0001119 122.2190 237.9070 13.50978798 43094
QIANFAN-58              
1 62788U 25016D   25316.28181622  .00000168  00000+0  24197-3 0  9992
2 62788  88.9728 106.1817 0015387  74.0641 286.2204 13.50978541 43133
QIANFAN-59              
1 62789U 25016E   25316.23243822  .00000170  00000+0  24441-3 0  9994
2 62789  88.9751 106.2533 0015816  77.5502 282.7418 13.50977930 43125
QIANFAN-60              
1 62790U 25016F   25316.26553430  .00000101  00000+0  13685-3 0  9990
2 62790  88.9733 106.2273 0017310  74.1232 286.1825 13.50974629 43113
QIANFAN-61              
1 62791U 25016G   25315.85385669  .00000109  00000+0  15036-3 0  9992
2 62791  88.9800 106.4116 0016255  74.7315 285.5632 13.50977790 43078
QIANFAN-62              
1 62792U 25016H   25316.22842269  .00000171  00000+0  24598-3 0  9991
2 62792  88.9746 106.2581 0017621  73.8821 286.4269 13.50981793 43111
QIANFAN-63              
1 62793U 25016J   25316.32714524  .00000176  00000+0  25326-3 0  9990
2 62793  88.9753 106.1974 0017728  78.5016 281.8125 13.50975003 43163
QIANFAN-64              
1 62794U 25016K   25316.22011172  .00000173  00000+0  24879-3 0  9998
2 62794  88.9739 106.1866 0015591  72.6345 287.6510 13.50976763 43148
